[{"OBJECT_NAME":"FLOCK 4G-12","OBJECT_ID":"2025-009S","EPOCH":"2026-03-09T17:16:21.445824","MEAN_MOTION":15.27059194,"ECCENTRICITY":0.00028933,"INCLINATION":97.4059,"RA_OF_ASC_NODE":151.1894,"ARG_OF_PERICENTER":310.1775,"MEAN_ANOMALY":49.9211,"EPHEMERIS_TYPE":0,"CLASSIFICATION_TYPE":"U","NORAD_CAT_ID":62625,"ELEMENT_SET_NO":999,"REV_AT_EPOCH":6371,"BSTAR":0.00043519262,"MEAN_MOTION_DOT":0.00011487,"MEAN_MOTION_DDOT":0},{"OBJECT_NAME":"STARLINK-36520","OBJECT_ID":"2026-008X","EPOCH":"2026-03-09T09:33:21.178656","MEAN_MOTION":15.27590215,"ECCENTRICITY":0.0001317,"INCLINATION":42.9973,"RA_OF_ASC_NODE":207.2097,"ARG_OF_PERICENTER":273.7761,"MEAN_ANOMALY":86.294,"EPHEMERIS_TYPE":0,"CLASSIFICATION_TYPE":"U","NORAD_CAT_ID":67466,"ELEMENT_SET_NO":999,"REV_AT_EPOCH":952,"BSTAR":0.0010621209,"MEAN_MOTION_DOT":0.0002909,"MEAN_MOTION_DDOT":0}]
